OBJECT_NAME,OBJECT_ID,EPOCH,MEAN_MOTION,ECCENTRICITY,INCLINATION,RA_OF_ASC_NODE,ARG_OF_PERICENTER,MEAN_ANOMALY,EPHEMERIS_TYPE,CLASSIFICATION_TYPE,NORAD_CAT_ID,ELEMENT_SET_NO,REV_AT_EPOCH,BSTAR,MEAN_MOTION_DOT,MEAN_MOTION_DDOT
SWARM A,2013-067B,2026-07-12T04:27:44.933472,15.51419104,.00033149,87.3304,46.9472,94.8377,265.3263,0,U,39452,999,71012,.10586368E-3,.6278E-4,0
SWARM C,2013-067C,2026-07-12T04:27:36.770400,15.51418546,.00032979,87.3304,45.5280,94.6591,265.5047,0,U,39453,999,71008,.10824724E-3,.6418E-4,0
BRITE-CA1 (TORONTO),2014-033L,2026-07-11T20:05:46.288320,14.72718584,.00781937,97.9767,321.3152,197.0405,162.8175,0,U,40020,999,64584,.93137253E-4,.569E-5,0
OCO 2,2014-035A,2026-07-12T05:16:22.209600,14.57130908,.00014558,98.2021,134.1324,81.3953,278.7410,0,U,40059,999,63969,.52521055E-4,.192E-5,0
BRITE-PL2 (HEWELIUSZ),2014-049B,2026-07-11T21:01:11.261856,14.94681645,.0014633,97.9118,305.0696,33.0365,327.1766,0,U,40119,999,64513,.9874E-4,.1013E-4,0
MMS 1,2015-011A,2026-07-12T08:00:01.999872,0.28507384,.82972403,72.4887,348.4710,167.9628,343.6243,0,U,40482,999,135,0,-.1284E-4,0
MMS 2,2015-011B,2026-07-12T08:00:01.999872,0.28514773,.82998156,72.4924,348.4709,167.9640,343.6088,0,U,40483,999,135,0,-.1284E-4,0
MMS 3,2015-011C,2026-07-12T08:00:01.999872,0.28514684,.82981737,72.4921,348.4827,167.9716,343.5828,0,U,40484,999,132,0,-.1283E-4,0
MMS 4,2015-011D,2026-07-12T08:00:01.999872,0.28507813,.82983506,72.4880,348.4654,167.9834,343.5803,0,U,40485,999,138,0,-.1283E-4,0
ASTROSAT,2015-052A,2026-07-11T18:43:55.447104,14.82549129,.00077569,5.9982,338.3312,22.2669,337.7795,0,U,40930,999,58348,.62854136E-4,.1187E-4,0
DAMPE,2015-078A,2026-07-12T06:27:37.112256,15.30848958,.00119339,97.4565,198.8601,356.1576,3.9571,0,U,41173,999,58838,.30277066E-4,.826E-5,0
PISAT,2016-059B,2026-07-11T12:41:51.713664,14.69025621,.00302902,97.8188,191.9369,126.0385,234.3635,0,U,41784,999,52331,.93078043E-4,.502E-5,0
HXMT (HUIYAN),2017-034A,2026-07-12T01:30:39.184128,15.18672268,.00325783,43.0151,44.5064,301.6112,58.1559,0,U,42758,999,50144,.14977227E-3,.2958E-4,0
FLYING LAPTOP,2017-042G,2026-07-12T07:32:18.731616,15.01300469,.00198201,97.4789,347.8994,41.6471,318.6259,0,U,42831,999,49022,.15611813E-3,.1958E-4,0
ZHANGHENG 1-01 (CSES-1),2018-015C,2026-07-12T08:05:47.334624,15.20584589,.00161423,97.6882,359.5001,174.6028,185.5384,0,U,43194,999,46846,.19938122E-3,.4309E-4,0
SALSAT,2020-068K,2026-07-11T12:58:29.571456,15.30139435,.00088233,97.8855,197.0941,206.5203,153.5586,0,U,46495,999,31908,.15528118E-3,.4447E-4,0
IXPE,2021-121A,2026-07-12T06:00:02.000160,15.10473372,.0007094,0.2293,127.2975,102.2295,66.0308,0,U,49954,999,573,.4524993E-3,.8603E-4,0
