SWARM A                 
1 39452U 13067B   26193.18593673  .00006278  00000+0  10586-3 0  9998
2 39452  87.3304  46.9472 0003314  94.8377 265.3263 15.51419104710120
SWARM C                 
1 39453U 13067C   26193.18584225  .00006418  00000+0  10825-3 0  9994
2 39453  87.3304  45.5280 0003297  94.6591 265.5047 15.51418546710085
BRITE-CA1 (TORONTO)     
1 40020U 14033L   26192.83734130  .00000569  00000+0  93137-4 0  9992
2 40020  97.9767 321.3152 0078193 197.0405 162.8175 14.72718584645848
OCO 2                   
1 40059U 14035A   26193.21970150  .00000192  00000+0  52521-4 0  9997
2 40059  98.2021 134.1324 0001455  81.3953 278.7410 14.57130908639694
BRITE-PL2 (HEWELIUSZ)   
1 40119U 14049B   26192.87582479  .00001013  00000+0  98740-4 0  9999
2 40119  97.9118 305.0696 0014633  33.0365 327.1766 14.94681645645137
MMS 1                   
1 40482U 15011A   26193.33335648 -.00001284  00000+0  00000+0 0  9996
2 40482  72.4887 348.4710 8297240 167.9628 343.6243  0.28507384  1355
MMS 2                   
1 40483U 15011B   26193.33335648 -.00001284  00000+0  00000+0 0  9997
2 40483  72.4924 348.4709 8299815 167.9640 343.6088  0.28514773  1357
MMS 3                   
1 40484U 15011C   26193.33335648 -.00001283  00000+0  00000+0 0  9997
2 40484  72.4921 348.4827 8298173 167.9716 343.5828  0.28514684  1325
MMS 4                   
1 40485U 15011D   26193.33335648 -.00001283  00000+0  00000+0 0  9998
2 40485  72.4880 348.4654 8298350 167.9834 343.5803  0.28507813  1381
ASTROSAT                
1 40930U 15052A   26192.78050286  .00001187  00000+0  62854-4 0  9990
2 40930   5.9982 338.3312 0007756  22.2669 337.7795 14.82549129583480
DAMPE                   
1 41173U 15078A   26193.26917954  .00000826  00000+0  30277-4 0  9999
2 41173  97.4565 198.8601 0011933 356.1576   3.9571 15.30848958588385
PISAT                   
1 41784U 16059B   26192.52907076  .00000502  00000+0  93078-4 0  9998
2 41784  97.8188 191.9369 0030290 126.0385 234.3635 14.69025621523310
HXMT (HUIYAN)           
1 42758U 17034A   26193.06295352  .00002958  00000+0  14977-3 0  9998
2 42758  43.0151  44.5064 0032578 301.6112  58.1559 15.18672268501447
FLYING LAPTOP           
1 42831U 17042G   26193.31410569  .00001958  00000+0  15612-3 0  9992
2 42831  97.4789 347.8994 0019820  41.6471 318.6259 15.01300469490221
ZHANGHENG 1-01 (CSES-1) 
1 43194U 18015C   26193.33735341  .00004309  00000+0  19938-3 0  9994
2 43194  97.6882 359.5001 0016142 174.6028 185.5384 15.20584589468467
SALSAT                  
1 46495U 20068K   26192.54062004  .00004447  00000+0  15528-3 0  9997
2 46495  97.8855 197.0941 0008823 206.5203 153.5586 15.30139435319080
IXPE                    
1 49954U 21121A   26193.25002315  .00008603  00000+0  45250-3 0  9992
2 49954   0.2293 127.2975 0007094 102.2295  66.0308 15.10473372  5734
